QIANFAN-89              
1 63175U 25046S   25282.29229160  .00000165  00000+0  23682-3 0  9994
2 63175  88.9807 326.7066 0014676 316.7910  43.2089 13.50968071 38709
QIANFAN-90              
1 63176U 25046T   25282.32103488  .00000152  00000+0  21636-3 0  9996
2 63176  88.9804 326.6760 0011579 315.8736  44.1491 13.50970171 38725
